{
  "links" : {
    "next" : "https://api.nasa.gov/neo/rest/v1/feed?start_date=1996-04-16&end_date=1996-04-16&detailed=true&api_key=t0TVs3DtDT2H8Oy2Zy8m2eVrNsAVKAexjcZXUckd",
    "prev" : "https://api.nasa.gov/neo/rest/v1/feed?start_date=1996-04-14&end_date=1996-04-14&detailed=true&api_key=t0TVs3DtDT2H8Oy2Zy8m2eVrNsAVKAexjcZXUckd",
    "self" : "https://api.nasa.gov/neo/rest/v1/feed?start_date=1996-04-15&end_date=1996-04-15&detailed=true&api_key=t0TVs3DtDT2H8Oy2Zy8m2eVrNsAVKAexjcZXUckd"
  },
  "element_count" : 5,
  "near_earth_objects" : {
    "1996-04-15" : [ {
      "links" : {
        "self" : "https://api.nasa.gov/neo/rest/v1/neo/3092296?api_key=t0TVs3DtDT2H8Oy2Zy8m2eVrNsAVKAexjcZXUckd"
      },
      "neo_reference_id" : "3092296",
      "name" : "(2001 GO2)",
      "nasa_jpl_url" : "http://ssd.jpl.nasa.gov/sbdb.cgi?sstr=3092296",
      "absolute_magnitude_h" : 24.3,
      "estimated_diameter" : {
        "kilometers" : {
          "estimated_diameter_min" : 0.0366906138,
          "estimated_diameter_max" : 0.0820427065
        },
        "meters" : {
          "estimated_diameter_min" : 36.6906137531,
          "estimated_diameter_max" : 82.0427064882
        },
        "miles" : {
          "estimated_diameter_min" : 0.0227984834,
          "estimated_diameter_max" : 0.0509789586
        },
        "feet" : {
          "estimated_diameter_min" : 120.3760332259,
          "estimated_diameter_max" : 269.1689931548
        }
      },
      "is_potentially_hazardous_asteroid" : false,
      "close_approach_data" : [ {
        "close_approach_date" : "1996-04-15",
        "epoch_date_close_approach" : 829551600000,
        "relative_velocity" : {
          "kilometers_per_second" : "11.1923435207",
          "kilometers_per_hour" : "40292.43667439",
          "miles_per_hour" : "25036.1532213731"
        },
        "miss_distance" : {
          "astronomical" : "0.2145085599",
          "lunar" : "83.4438323975",
          "kilometers" : "32090024",
          "miles" : "19939816"
        },
        "orbiting_body" : "Earth"
      } ],
      "orbital_data" : {
        "orbit_id" : "12",
        "orbit_determination_date" : "2017-04-06 09:16:26",
        "orbit_uncertainty" : "7",
        "minimum_orbit_intersection" : ".00336216",
        "jupiter_tisserand_invariant" : "6.033",
        "epoch_osculation" : "2458000.5",
        "eccentricity" : ".1682252090459494",
        "semi_major_axis" : "1.006682573148335",
        "inclination" : "4.625123200742138",
        "ascending_node_longitude" : "193.5434227412754",
        "orbital_period" : "368.9242921416832",
        "perihelion_distance" : ".8373331868375422",
        "perihelion_argument" : "265.4699970089685",
        "aphelion_distance" : "1.176031959459128",
        "perihelion_time" : "2457825.357761166558",
        "mean_anomaly" : "170.905541660089",
        "mean_motion" : ".9758099633670752",
        "equinox" : "J2000"
      }
    }, {
      "links" : {
        "self" : "https://api.nasa.gov/neo/rest/v1/neo/3749034?api_key=t0TVs3DtDT2H8Oy2Zy8m2eVrNsAVKAexjcZXUckd"
      },
      "neo_reference_id" : "3749034",
      "name" : "(2016 GN2)",
      "nasa_jpl_url" : "http://ssd.jpl.nasa.gov/sbdb.cgi?sstr=3749034",
      "absolute_magnitude_h" : 25.0,
      "estimated_diameter" : {
        "kilometers" : {
          "estimated_diameter_min" : 0.02658,
          "estimated_diameter_max" : 0.0594346868
        },
        "meters" : {
          "estimated_diameter_min" : 26.58,
          "estimated_diameter_max" : 59.4346868419
        },
        "miles" : {
          "estimated_diameter_min" : 0.0165160412,
          "estimated_diameter_max" : 0.0369309908
        },
        "feet" : {
          "estimated_diameter_min" : 87.2047272,
          "estimated_diameter_max" : 194.9956979785
        }
      },
      "is_potentially_hazardous_asteroid" : false,
      "close_approach_data" : [ {
        "close_approach_date" : "1996-04-15",
        "epoch_date_close_approach" : 829551600000,
        "relative_velocity" : {
          "kilometers_per_second" : "6.2961191309",
          "kilometers_per_hour" : "22666.0288712226",
          "miles_per_hour" : "14083.7888838994"
        },
        "miss_distance" : {
          "astronomical" : "0.050503424",
          "lunar" : "19.6458320618",
          "kilometers" : "7555205",
          "miles" : "4694586.5"
        },
        "orbiting_body" : "Earth"
      } ],
      "orbital_data" : {
        "orbit_id" : "13",
        "orbit_determination_date" : "2017-04-06 08:26:49",
        "orbit_uncertainty" : "5",
        "minimum_orbit_intersection" : ".0511377",
        "jupiter_tisserand_invariant" : "6.368",
        "epoch_osculation" : "2458000.5",
        "eccentricity" : ".1463703824661712",
        "semi_major_axis" : ".9390955971481401",
        "inclination" : "10.38561365934854",
        "ascending_node_longitude" : "18.53274266511217",
        "orbital_period" : "332.401621359663",
        "perihelion_distance" : ".8016398154212694",
        "perihelion_argument" : "334.4465114352869",
        "aphelion_distance" : "1.076551378875011",
        "perihelion_time" : "2457956.160754416631",
        "mean_anomaly" : "48.02060936020965",
        "mean_motion" : "1.083027208253221",
        "equinox" : "J2000"
      }
    } ]
  }
}